[{"OBJECT_NAME":"STARLINK-1805","OBJECT_ID":"2020-073AM","EPOCH":"2026-03-10T00:00:02.999808","MEAN_MOTION":15.51869565,"ECCENTRICITY":0.00030988,"INCLINATION":53.0508,"RA_OF_ASC_NODE":242.0948,"ARG_OF_PERICENTER":228.6165,"MEAN_ANOMALY":7.6638,"EPHEMERIS_TYPE":0,"CLASSIFICATION_TYPE":"U","NORAD_CAT_ID":46705,"ELEMENT_SET_NO":999,"REV_AT_EPOCH":585,"BSTAR":0.0025078624,"MEAN_MOTION_DOT":0.00155383,"MEAN_MOTION_DDOT":0},{"OBJECT_NAME":"POLYTECH UNIVERSE-5","OBJECT_ID":"2024-199L","EPOCH":"2026-03-09T21:29:23.803296","MEAN_MOTION":15.52287921,"ECCENTRICITY":0.00049026,"INCLINATION":97.3133,"RA_OF_ASC_NODE":304.2615,"ARG_OF_PERICENTER":279.4444,"MEAN_ANOMALY":80.6254,"EPHEMERIS_TYPE":0,"CLASSIFICATION_TYPE":"U","NORAD_CAT_ID":61745,"ELEMENT_SET_NO":999,"REV_AT_EPOCH":12223,"BSTAR":0.00078869438,"MEAN_MOTION_DOT":0.00048079,"MEAN_MOTION_DDOT":0}]
